start=new Date('2022-05-03T00:00:00.000Z').valueOf();
sats=[{"TLE_LINE1":"1 50841U 22001AQ  22122.91668981 -.00011701  00000-0 -71799-3 0  9998","TIME_SYSTEM":"UTC","OBJECT_NAME":"STARLINK-3300","COUNTRY_CODE":"US","REF_FRAME":"TEME","CENTER_NAME":"EARTH","PERIAPSIS":"538.212","ARG_OF_PERICENTER":"44.6615","FILE":"3426306","CLASSIFICATION_TYPE":"U","BSTAR":"-0.00071799000000","MEAN_MOTION_DDOT":"0.0000000000000","OBJECT_ID":"2022-001AQ","ECCENTRICITY":"0.00021700","RA_OF_ASC_NODE":"14.3671","RCS_SIZE":"LARGE","OBJECT_TYPE":"PAYLOAD","NORAD_CAT_ID":"50841","SITE":"AFETR","MEAN_MOTION_DOT":"-0.00011701","DECAY_DATE":null,"REV_AT_EPOCH":"360","MEAN_MOTION":"15.08850645","ELEMENT_SET_NO":"999","INCLINATION":"53.2157","PERIOD":"95.437","TLE_LINE2":"2 50841  53.2157  14.3671 0002170  44.6615 132.4189 15.08850645  3600","GP_ID":"202557371","SEMIMAJOR_AXIS":"6917.848","APOAPSIS":"541.214","MEAN_ANOMALY":"132.4189","LAUNCH_DATE":"2022-01-06","MEAN_ELEMENT_THEORY":"SGP4","EPHEMERIS_TYPE":"0","EPOCH":"2022-05-02T22:00:01.999584"},{"LAUNCH_DATE":"2022-01-06","MEAN_ANOMALY":"214.3060","EPHEMERIS_TYPE":"0","EPOCH":"2022-05-02T22:00:01.999584","MEAN_ELEMENT_THEORY":"SGP4","GP_ID":"202558622","TLE_LINE2":"2 50842  53.2178  14.3705 0002150  42.7818 214.3060 15.08866032  3609","SEMIMAJOR_AXIS":"6917.801","PERIOD":"95.436","APOAPSIS":"541.153","ELEMENT_SET_NO":"999","DECAY_DATE":null,"REV_AT_EPOCH":"360","MEAN_MOTION":"15.08866032","INCLINATION":"53.2178","MEAN_MOTION_DOT":"-0.00055121","SITE":"AFETR","RA_OF_ASC_NODE":"14.3705","NORAD_CAT_ID":"50842","OBJECT_TYPE":"PAYLOAD","RCS_SIZE":"LARGE","BSTAR":"-0.00346930000000","CLASSIFICATION_TYPE":"U","OBJECT_ID":"2022-001AR","ECCENTRICITY":"0.00021500","MEAN_MOTION_DDOT":"0.0000000000000","ARG_OF_PERICENTER":"42.7818","FILE":"3426306","COUNTRY_CODE":"US","REF_FRAME":"TEME","CENTER_NAME":"EARTH","PERIAPSIS":"538.178","OBJECT_NAME":"STARLINK-3302","TLE_LINE1":"1 50842U 22001AR  22122.91668981 -.00055121  00000-0 -34693-2 0  9994","TIME_SYSTEM":"UTC"},{"ARG_OF_PERICENTER":"41.6233","FILE":"3426306","CLASSIFICATION_TYPE":"U","BSTAR":"-0.00085845000000","MEAN_MOTION_DDOT":"0.0000000000000","OBJECT_ID":"2022-001AS","ECCENTRICITY":"0.00021840","TIME_SYSTEM":"UTC","TLE_LINE1":"1 50843U 22001AS  22122.91668981 -.00013925  00000-0 -85845-3 0  9997","OBJECT_NAME":"STARLINK-3325","COUNTRY_CODE":"US","REF_FRAME":"TEME","CENTER_NAME":"EARTH","PERIAPSIS":"538.237","PERIOD":"95.438","SEMIMAJOR_AXIS":"6917.883","TLE_LINE2":"2 50843  53.2172  14.3745 0002184  41.6233  95.5313 15.08839219  3612","GP_ID":"202558868","APOAPSIS":"541.259","MEAN_ANOMALY":"95.5313","LAUNCH_DATE":"2022-01-06","MEAN_ELEMENT_THEORY":"SGP4","EPOCH":"2022-05-02T22:00:01.999584","EPHEMERIS_TYPE":"0","RA_OF_ASC_NODE":"14.3745","RCS_SIZE":"LARGE","NORAD_CAT_ID":"50843","OBJECT_TYPE":"PAYLOAD","MEAN_MOTION_DOT":"-0.00013925","SITE":"AFETR","MEAN_MOTION":"15.08839219","DECAY_DATE":null,"REV_AT_EPOCH":"361","ELEMENT_SET_NO":"999","INCLINATION":"53.2172"},{"MEAN_ANOMALY":"271.5042","LAUNCH_DATE":"2022-01-06","MEAN_ELEMENT_THEORY":"SGP4","EPHEMERIS_TYPE":"0","EPOCH":"2022-05-02T22:00:01.999584","PERIOD":"95.436","SEMIMAJOR_AXIS":"6917.827","TLE_LINE2":"2 50844  53.2199  14.3617 0001972  45.5745 271.5042 15.08857307  3618","GP_ID":"202557622","APOAPSIS":"541.057","SITE":"AFETR","MEAN_MOTION_DOT":"-0.00013590","DECAY_DATE":null,"ELEMENT_SET_NO":"999","REV_AT_EPOCH":"361","MEAN_MOTION":"15.08857307","INCLINATION":"53.2199","RA_OF_ASC_NODE":"14.3617","RCS_SIZE":"LARGE","NORAD_CAT_ID":"50844","OBJECT_TYPE":"PAYLOAD","CLASSIFICATION_TYPE":"U","BSTAR":"-0.00083694000000","MEAN_MOTION_DDOT":"0.0000000000000","OBJECT_ID":"2022-001AT","ECCENTRICITY":"0.00019720","ARG_OF_PERICENTER":"45.5745","FILE":"3426306","COUNTRY_CODE":"US","REF_FRAME":"TEME","CENTER_NAME":"EARTH","PERIAPSIS":"538.328","TIME_SYSTEM":"UTC","TLE_LINE1":"1 50844U 22001AT  22122.91668981 -.00013590  00000-0 -83694-3 0  9996","OBJECT_NAME":"STARLINK-3326"},{"MEAN_ANOMALY":"10.4624","LAUNCH_DATE":"2022-01-06","MEAN_ELEMENT_THEORY":"SGP4","EPHEMERIS_TYPE":"0","EPOCH":"2022-05-02T22:00:01.999584","PERIOD":"95.437","GP_ID":"202557872","TLE_LINE2":"2 50845  53.2185  14.3578 0001808  66.6305  10.4624 15.08844889  3611","SEMIMAJOR_AXIS":"6917.865","APOAPSIS":"540.981","SITE":"AFETR","MEAN_MOTION_DOT":"-0.00030039","REV_AT_EPOCH":"361","DECAY_DATE":null,"ELEMENT_SET_NO":"999","MEAN_MOTION":"15.08844889","INCLINATION":"53.2185","RA_OF_ASC_NODE":"14.3578","RCS_SIZE":"LARGE","NORAD_CAT_ID":"50845","OBJECT_TYPE":"PAYLOAD","CLASSIFICATION_TYPE":"U","BSTAR":"-0.00187690000000","MEAN_MOTION_DDOT":"0.0000000000000","ECCENTRICITY":"0.00018080","OBJECT_ID":"2022-001AU","ARG_OF_PERICENTER":"66.6305","FILE":"3426306","COUNTRY_CODE":"US","REF_FRAME":"TEME","CENTER_NAME":"EARTH","PERIAPSIS":"538.480","TIME_SYSTEM":"UTC","TLE_LINE1":"1 50845U 22001AU  22122.91668981 -.00030039  00000-0 -18769-2 0  9994","OBJECT_NAME":"STARLINK-3230"},{"CLASSIFICATION_TYPE":"U","BSTAR":"-0.00128000000000","MEAN_MOTION_DDOT":"0.0000000000000","OBJECT_ID":"2022-001AV","ECCENTRICITY":"0.00020790","ARG_OF_PERICENTER":"39.0731","FILE":"3426306","CENTER_NAME":"EARTH","COUNTRY_CODE":"US","REF_FRAME":"TEME","PERIAPSIS":"538.328","TIME_SYSTEM":"UTC","TLE_LINE1":"1 50846U 22001AV  22122.91668981 -.00020598  00000-0 -12800-2 0  9994","OBJECT_NAME":"STARLINK-3308","MEAN_ANOMALY":"298.0414","LAUNCH_DATE":"2022-01-06","MEAN_ELEMENT_THEORY":"SGP4","EPHEMERIS_TYPE":"0","EPOCH":"2022-05-02T22:00:01.999584","PERIOD":"95.438","TLE_LINE2":"2 50846  53.2196  14.3605 0002079  39.0731 298.0414 15.08833119  3595","SEMIMAJOR_AXIS":"6917.901","GP_ID":"202558122","APOAPSIS":"541.205","SITE":"AFETR","MEAN_MOTION_DOT":"-0.00020598","INCLINATION":"53.2196","DECAY_DATE":null,"REV_AT_EPOCH":"359","ELEMENT_SET_NO":"999","MEAN_MOTION":"15.08833119","RA_OF_ASC_NODE":"14.3605","RCS_SIZE":"LARGE","OBJECT_TYPE":"PAYLOAD","NORAD_CAT_ID":"50846"},{"ARG_OF_PERICENTER":"69.5917","FILE":"3426306","BSTAR":"-0.00149710000000","CLASSIFICATION_TYPE":"U","ECCENTRICITY":"0.00024350","OBJECT_ID":"2022-001AW","MEAN_MOTION_DDOT":"0.0000000000000","OBJECT_NAME":"STARLINK-3319","TIME_SYSTEM":"UTC","TLE_LINE1":"1 50847U 22001AW  22122.91668981 -.00024059  00000-0 -14971-2 0  9992","CENTER_NAME":"EARTH","COUNTRY_CODE":"US","REF_FRAME":"TEME","PERIAPSIS":"537.956","GP_ID":"202558368","TLE_LINE2":"2 50847  53.2153  14.3655 0002435  69.5917 127.5052 15.08874180  3614","SEMIMAJOR_AXIS":"6917.776","PERIOD":"95.435","APOAPSIS":"541.325","LAUNCH_DATE":"2022-01-06","MEAN_ANOMALY":"127.5052","EPHEMERIS_TYPE":"0","EPOCH":"2022-05-02T22:00:01.999584","MEAN_ELEMENT_THEORY":"SGP4","RA_OF_ASC_NODE":"14.3655","OBJECT_TYPE":"PAYLOAD","NORAD_CAT_ID":"50847","RCS_SIZE":"LARGE","DECAY_DATE":null,"REV_AT_EPOCH":"361","MEAN_MOTION":"15.08874180","ELEMENT_SET_NO":"999","INCLINATION":"53.2153","MEAN_MOTION_DOT":"-0.00024059","SITE":"AFETR"},{"PERIAPSIS":"538.153","REF_FRAME":"TEME","COUNTRY_CODE":"US","CENTER_NAME":"EARTH","OBJECT_NAME":"STARLINK-3315","TIME_SYSTEM":"UTC","TLE_LINE1":"1 50848U 22001AX  22122.91668981 -.00022468  00000-0 -13980-2 0  9994","OBJECT_ID":"2022-001AX","ECCENTRICITY":"0.00023110","MEAN_MOTION_DDOT":"0.0000000000000","BSTAR":"-0.00139800000000","CLASSIFICATION_TYPE":"U","FILE":"3426306","ARG_OF_PERICENTER":"42.0639","DECAY_DATE":null,"MEAN_MOTION":"15.08837815","REV_AT_EPOCH":"360","ELEMENT_SET_NO":"999","INCLINATION":"53.2194","MEAN_MOTION_DOT":"-0.00022468","SITE":"AFETR","NORAD_CAT_ID":"50848","OBJECT_TYPE":"PAYLOAD","RCS_SIZE":"LARGE","RA_OF_ASC_NODE":"14.3592","EPHEMERIS_TYPE":"0","EPOCH":"2022-05-02T22:00:01.999584","MEAN_ELEMENT_THEORY":"SGP4","LAUNCH_DATE":"2022-01-06","MEAN_ANOMALY":"315.0400","APOAPSIS":"541.351","TLE_LINE2":"2 50848  53.2194  14.3592 0002311  42.0639 315.0400 15.08837815  3604","GP_ID":"202557122","SEMIMAJOR_AXIS":"6917.887","PERIOD":"95.438"},{"DECAY_DATE":null,"MEAN_MOTION":"15.08848930","REV_AT_EPOCH":"359","ELEMENT_SET_NO":"999","INCLINATION":"53.2196","SITE":"AFETR","MEAN_MOTION_DOT":"-0.00010548","RA_OF_ASC_NODE":"14.3616","NORAD_CAT_ID":"50849","OBJECT_TYPE":"PAYLOAD","RCS_SIZE":"LARGE","LAUNCH_DATE":"2022-01-06","MEAN_ANOMALY":"255.4813","EPHEMERIS_TYPE":"0","EPOCH":"2022-05-02T22:00:01.999584","MEAN_ELEMENT_THEORY":"SGP4","GP_ID":"202557372","TLE_LINE2":"2 50849  53.2196  14.3616 0002139  41.6172 255.4813 15.08848930  3592","SEMIMAJOR_AXIS":"6917.853","PERIOD":"95.437","APOAPSIS":"541.198","CENTER_NAME":"EARTH","COUNTRY_CODE":"US","REF_FRAME":"TEME","PERIAPSIS":"538.238","OBJECT_NAME":"STARLINK-3311","TLE_LINE1":"1 50849U 22001AY  22122.91668981 -.00010548  00000-0 -64539-3 0  9998","TIME_SYSTEM":"UTC","BSTAR":"-0.00064539000000","CLASSIFICATION_TYPE":"U","OBJECT_ID":"2022-001AY","ECCENTRICITY":"0.00021390","MEAN_MOTION_DDOT":"0.0000000000000","ARG_OF_PERICENTER":"41.6172","FILE":"3426306"},{"BSTAR":"-0.00024964000000","CLASSIFICATION_TYPE":"U","ECCENTRICITY":"0.00087600","OBJECT_ID":"2022-001AZ","MEAN_MOTION_DDOT":"0.0000000000000","ARG_OF_PERICENTER":"277.6713","FILE":"3426306","COUNTRY_CODE":"US","REF_FRAME":"TEME","CENTER_NAME":"EARTH","PERIAPSIS":"343.775","OBJECT_NAME":"STARLINK-3312","TIME_SYSTEM":"UTC","TLE_LINE1":"1 50850U 22001AZ  22122.91668981 -.00035655  00000-0 -24964-3 0  9994","LAUNCH_DATE":"2022-01-06","MEAN_ANOMALY":"94.7115","EPHEMERIS_TYPE":"0","EPOCH":"2022-05-02T22:00:01.999584","MEAN_ELEMENT_THEORY":"SGP4","GP_ID":"202558623","TLE_LINE2":"2 50850  53.2151 344.8595 0008760 277.6713  94.7115 15.73232045  3708","SEMIMAJOR_AXIS":"6727.804","PERIOD":"91.531","APOAPSIS":"355.562","DECAY_DATE":null,"INCLINATION":"53.2151","REV_AT_EPOCH":"370","ELEMENT_SET_NO":"999","MEAN_MOTION":"15.73232045","SITE":"AFETR","MEAN_MOTION_DOT":"-0.00035655","RA_OF_ASC_NODE":"344.8595","OBJECT_TYPE":"PAYLOAD","NORAD_CAT_ID":"50850","RCS_SIZE":"LARGE"}];
